UNKNOWN                 
1 82854U          25196.24835865  .00001048  00000+0  82422-3 0  9994
2 82854  82.6903 182.5372 0129957 350.0532   9.8059 13.87193554 59298
UNKNOWN                 
1 82873U          25195.37077268  .00001916  00000+0  86521-3 0  9991
2 82873 100.0074  69.0056 0040914 347.2322  12.7812 14.23157562599694
UNKNOWN                 
1 82875U          25184.75104909  .00000975  00000+0  26460-3 0  9996
2 82875  98.6574 172.2804 0380047  27.9155 334.1850 14.14778236521562
UNKNOWN                 
1 82893U          25194.54527919  .00005287  00000+0  21165-2 0  9991
2 82893  98.9610 305.2199 0028907 127.2718 233.1105 14.28536329402226
UNKNOWN                 
1 82912U          25193.20517385  .00002373  00000+0  10141-2 0  9996
2 82912  65.8336 167.6548 0778644 338.4400  18.5437 13.26411261558957
UNKNOWN                 
1 82961U          25194.40103075  .00004425  00000+0  74385-2 0  9990
2 82961  99.9073 356.7472 0396021   5.9930 354.5729 13.19500527535591
UNKNOWN                 
1 82965U 70025    25196.65844781  .00000791  00000+0  11317-2 0  9991
2 82965 100.1231 271.3293 0003194 146.2719 213.8623 13.59615786504054
UNKNOWN                 
1 83903U          25189.99846534  .00000076  00000+0  00000+0 0  9997
2 83903   6.5687 292.0016 0124814 245.7345 144.8694  0.99113714 42116
UNKNOWN                 
1 83934U          25196.45563668  .00000010  00000+0  00000+0 0  9992
2 83934   6.1211 298.5163 0227812 265.7249  90.9837  1.02661512 43738
UNKNOWN                 
1 83970U          25194.70520897  .00004054  00000+0  42428-2 0  9990
2 83970  18.3142  31.3811 5081597 186.6794 162.5052  5.30729892188116
UNKNOWN                 
1 84006U          25189.88623099  .00000027  00000+0  00000+0 0  9995
2 84006  22.7652 208.4466 6093006   6.9139 358.7802  2.16230812 80833
UNKNOWN                 
1 84188U          25196.55178379  .00066914  00000+0  59891-1 0  9995
2 84188  65.0026  17.2017 3945306  34.7936 345.6617  7.18543355 30376
UNKNOWN                 
1 84236U          25194.99029816 -.00000293  00000+0 -16779-2 0  9995
2 84236   9.3261  43.0180 6883485 319.9560   5.6549  2.62443760198716
UNKNOWN                 
1 84292U          25196.38089957  .00003077  00000+0  14934-2 0  9996
2 84292  23.8858   8.3659 4584294 238.1134  69.1933  6.20010961218726
UNKNOWN                 
1 84406U          25193.14207164  .00000206  00000+0  13178-2 0  9996
2 84406 101.7148 335.3726 0040618 344.3901 200.3344 12.67107287 29859
UNKNOWN                 
1 84407U          25195.79495624  .00000028  00000+0 -37315-2 0  9992
2 84407  19.5999   6.8035 7201116 340.8487   2.0130  2.05743229 72763
UNKNOWN                 
1 84437U          25193.16819689 -.00000370  00000+0  00000+0 0  9993
2 84437  18.7282 295.2182 7024125 190.0397 140.2850  1.97311836  9913
UNKNOWN                 
1 84575U          25194.06030012 -.00000062  00000+0 -93301-3 0  9990
2 84575  18.0049 209.7198 7135763 288.4225  10.5345  2.19895339 62108
UNKNOWN                 
1 84932U          25193.40436844  .00000305  00000+0  34753-2 0  9990
2 84932   2.3971 324.6785 6548645 253.3608  74.9659  2.99675920127188
UNKNOWN                 
1 85004U          25194.88739302  .00000555  00000+0  18535-3 0  9997
2 85004  98.3988 168.4288 0046110 258.8164 130.5095 14.40593428609038
UNKNOWN                 
1 85010U          25195.11324560  .00000671  00000+0  75040-3 0  9990
2 85010  99.2644  61.6205 0025143 296.2177 216.3817 13.74661481583082
UNKNOWN                 
1 85015U          25195.63163570  .00000338  00000+0  73223-4 0  9996
2 85015  74.0493 327.3115 0015976 271.8115  88.1222 14.62052634620524
UNKNOWN                 
1 85023U          25194.73216463  .00014928  00000+0  27940-2 0  9998
2 85023  99.8504 179.2613 0004345  66.0111 110.6658 14.64958926606514
UNKNOWN                 
1 85027U          25195.49338178  .00000033  00000+0  10578-3 0  9996
2 85027  66.0415 111.8766 0185352 268.4314  89.5512 13.74163245583831
UNKNOWN                 
1 85047U          25194.06037561  .00008948  00000+0  15138-1 0  9990
2 85047 102.3529 127.0803 0176722   5.3313 354.9636 13.39801425556186
UNKNOWN                 
1 85061U          25187.40175260  .00005359  00000+0  21676-1 0  9992
2 85061 102.4016 156.9336 0271577 134.6840  18.8372 12.75602558535456
UNKNOWN                 
1 85100U          25196.60982602  .00000265  00000+0  91465-4 0  9991
2 85100  74.0457 140.2994 0011525  42.1422 136.5472 14.40548550611722
UNKNOWN                 
1 85106U          25195.11670339  .00000371  00000+0  45673-3 0  9990
2 85106 100.0554 288.5747 0010152  45.2258  73.0711 13.72664970582260
UNKNOWN                 
1 85151U 86019    25196.05704285  .00007833  00000+0  12620-2 0  9991
2 85151  98.4155  54.3856 0008177 262.0470  97.9808 14.71746607457324
UNKNOWN                 
1 85210U 75052    25196.63421639  .00000833  00000+0  83533-3 0  9990
2 85210  99.8445 333.6797 0214475 339.0310  37.5996 13.71200351581586
UNKNOWN                 
1 85217U          25193.55644388  .00001569  00000+0  43215-3 0  9994
2 85217  98.0288 298.1386 0210452 230.4928 127.7489 14.36022559605869
UNKNOWN                 
1 85237U          25192.58018375  .00002259  00000+0  52118-3 0  9998
2 85237  65.5347 258.5976 0513234  98.9635 266.9872 13.98769021586776
UNKNOWN                 
1 85238U          25196.59266409  .00000010  00000+0  44013-4 0  9996
2 85238  99.0467 130.2172 0062371 246.5542 289.0489 13.88307824590004
UNKNOWN                 
1 85246U          25196.30728915  .00001145  00000+0  42350-3 0  9990
2 85246  97.9889 213.9506 0225475  27.8548 333.4492 14.20931582601709
UNKNOWN                 
1 85373U          25195.86713045  .00001821  00000+0  12817-2 0  9994
2 85373 100.4356 211.1512 0045921 277.1008 205.2988 13.99215455591021
UNKNOWN                 
1 85437U          25190.01368564  .00000426  00000+0  00000+0 0  9997
2 85437  10.9952  43.2446 0038980 242.8706 181.0479 14.23867620    15
UNKNOWN                 
1 85438U          25190.98143219  .00000450  00000+0  00000+0 0  9999
2 85438  10.7577  36.3504 0056041  87.5360 328.6628 14.41419076  2940
UNKNOWN                 
1 85448U          25170.94813851 -.00000162  00000+0  00000+0 0  9991
2 85448   1.0774 281.6401 4011088 178.0910 243.7468  1.11243265    09
UNKNOWN                 
1 85449U          25171.82910985 -.00000296  00000+0  00000+0 0  9994
2 85449   1.1006 280.5353 3659924 173.8872 207.9840  1.00593983    19
UNKNOWN                 
1 85450U          25171.08391049 -.00000114  00000+0  00000+0 0  9997
2 85450   1.4725 290.0905 4667416 185.6371 285.1682  1.39151211    09
UNKNOWN                 
1 87014U          25191.62301796  .00001483  00000+0  23606-2 0  9996
2 87014 100.5079 147.3114 0042638 260.5918 276.3851 13.50952026569969
UNKNOWN                 
1 87029U 99025    25189.56189353  .00000577  00000+0  38045-3 0  9997
2 87029  98.7700 230.2775 0081232 331.6826  27.9938 14.04076860570949
UNKNOWN                 
1 87042U 00055    25195.41460987  .00000749  00000+0  47127-3 0  9995
2 87042  98.7311 243.9517 0044402 160.0302 200.2617 14.06796167532688
UNKNOWN                 
1 87051U 76126    25195.85023738  .00001387  00000+0  47611-3 0  9991
2 87051  65.7270 253.8240 0730367 209.7287 146.0321 13.44993683568281
UNKNOWN                 
1 87054U 75052    25196.35910429  .00001784  00000+0  10363-2 0  9993
2 87054 100.1036  57.3943 0015414  33.3399 326.8735 14.10229758595128
UNKNOWN                 
1 87071U 68097    25194.19864095  .00006446  00000+0  22266-2 0  9995
2 87071  61.2186   4.4208 0501468 162.1641 199.7720 13.83529900581360
UNKNOWN                 
1 87074U 77121    25196.58060695  .00000138  00000+0  22166-3 0  9997
2 87074  66.1415 262.8030 0148492 348.1560  11.6024 13.71431772582596
UNKNOWN                 
1 87113U 76126    25196.33992444  .00090613  00000+0  25502-2 0  9997
2 87113  65.6204 187.7687 0110373 276.2084  82.6491 15.30025148612786
UNKNOWN                 
1 87129U 76077    25193.98109962  .00000077  00000+0  89465-3 0  9996
2 87129 102.2647 283.1186 0028676  10.9131 349.2549 12.42740802527699
UNKNOWN                 
1 87159U          25194.60914289  .00000739  00000+0  86008-3 0  9993
2 87159  90.3443  63.9565 0108828 350.2622   9.6426 13.65601410535924
UNKNOWN                 
1 87163U 76126    25194.78847268  .00001852  00000+0  58220-3 0  9993
2 87163  65.5986 250.7039 0648676 132.7862 232.9662 13.62806360556807
UNKNOWN                 
1 87164U          25195.86808902  .00003544  00000+0  76441-3 0  9999
2 87164  65.2038  45.1803 0101965 127.1474 233.8992 14.56575289613784
UNKNOWN                 
1 87204U          25196.57477805  .00001428  00000+0  58036-3 0  9996
2 87204  98.5543  60.4083 0048024  46.0905 314.4226 14.28480851603990
UNKNOWN                 
1 87211U          25195.22389110  .00001830  00000+0  53004-3 0  9993
2 87211  99.0762 184.4384 0052969 249.0124 128.9782 14.45004640685889
UNKNOWN                 
1 87214U 70025    25195.70961917  .00001840  00000+0  16843-2 0  9994
2 87214 100.3202 179.6960 0072450 281.1717  78.1295 13.83445856579353
UNKNOWN                 
1 87237U 99025    25194.93316525  .00000177  00000+0  16836-3 0  9998
2 87237  99.2759 250.5862 0102738 335.1568 204.8592 13.91594823590649
UNKNOWN                 
1 87239U 81053    25196.30352646  .00005153  00000+0  13656-2 0  9994
2 87239  82.8732 210.1708 0023269 149.8092 210.4451 14.48445446606075
UNKNOWN                 
1 87245U 71015    25196.43853079  .00001709  00000+0  36396-3 0  9998
2 87245  65.6528  89.0175 0449979 195.8006 340.9719 14.13578320592947
UNKNOWN                 
1 87271U 71015    25196.62931621  .00007196  00000+0  13438-2 0  9995
2 87271  65.7550 278.8669 0434944 152.8568 209.6003 14.18953751591058
